COSMOS 1933             
1 18958U 88020A   25361.92234161  .00005872  00000+0  29362-3 0  9990
2 18958  82.5134 321.8761 0006500  88.6292 271.5686 15.17239738 39340
SL-3 R/B                
1 19046U 88032B   25362.08045637  .00006745  00000+0  32319-3 0  9994
2 19046  97.5098 340.6975 0028138 121.3038 239.0957 15.18900708 41238
SL-16 R/B               
1 19120U 88039B   25361.96713006 -.00000090  00000+0 -19825-4 0  9999
2 19120  71.0125 220.2021 0019536  90.2242 270.1122 14.19599712948209
COSMOS 1953             
1 19210U 88050A   25351.75027580  .00004793  00000+0  17925-3 0  9993
2 19210  82.5093 240.5536 0013540  56.0210 304.2313 15.26995692 25270
SL-8 R/B                
1 19257U 88053B   25362.13172957  .00000316  00000+0  11082-3 0  9995
2 19257  74.0464 244.3526 0018980  82.6764  68.6047 14.38868918966307
COSMOS 1975             
1 19573U 88093A   25361.92249650  .00009789  00000+0  37077-3 0  9996
2 19573  82.5198 189.6268 0012883  65.2484 295.0093 15.26692697  8459
SL-14 R/B               
1 19574U 88093B   25361.80676043  .00000697  00000+0  77699-4 0  9998
2 19574  82.5318 109.5286 0019227 276.4454 204.2504 14.85566162990367
SL-16 R/B               
1 19650U 88102B   25362.13955957 -.00000031  00000+0  86550-5 0  9995
2 19650  71.0008 302.0404 0012146 125.4594 234.7665 14.16142797916760
INTERCOSMOS 24          
1 20261U 89080A   25361.20311338  .00000804  00000+0  22740-3 0  9993
2 20261  82.6057 151.5500 1189024 100.9836 272.7052 12.59462916657671
SL-14 R/B               
1 20262U 89080C   25361.86523327  .00000363  00000+0  10661-3 0  9998
2 20262  82.5912 219.3102 1230348 349.0247   8.6069 12.50425002651179
DELTA 1 R/B             
1 20323U 89089B   25362.02211730  .00000477  00000+0  12702-3 0  9990
2 20323  97.0742 215.8369 0068873 350.3535   9.6336 14.50585227885345
ARIANE 40 R/B           
1 20443U 90005H   25362.16693883  .00000373  00000+0  13240-3 0  9994
2 20443  98.3223  59.9075 0011096  63.9865 296.2465 14.39810133882512
